start=new Date('2021-09-02T00:00:00.000Z').valueOf();
sats=[{"COUNTRY_CODE":"US","MEAN_ELEMENT_THEORY":"SGP4","BSTAR":"0.00010329000000","GP_ID":"183903511","LAUNCH_DATE":"2021-03-04","MEAN_MOTION_DOT":"0.00013937","REF_FRAME":"TEME","FILE":"3107010","PERIAPSIS":"346.589","RA_OF_ASC_NODE":"3.5378","MEAN_ANOMALY":"11.5707","EPHEMERIS_TYPE":"0","DECAY_DATE":null,"OBJECT_ID":"2021-017C","NORAD_CAT_ID":"47724","RCS_SIZE":"LARGE","TIME_SYSTEM":"UTC","TLE_LINE1":"1 47724U 21017C   21244.55543172  .00013937  00000-0  10329-3 0  9991","INCLINATION":"53.0438","CLASSIFICATION_TYPE":"U","ARG_OF_PERICENTER":"348.5207","TLE_LINE2":"2 47724  53.0438   3.5378 0004492 348.5207  11.5707 15.73252123 29163","MEAN_MOTION":"15.73252123","REV_AT_EPOCH":"2916","ELEMENT_SET_NO":"999","SITE":"AFETR","CENTER_NAME":"EARTH","OBJECT_NAME":"STARLINK-2116","MEAN_MOTION_DDOT":"0.0000000000000","EPOCH":"2021-09-01T13:19:49.300608","ECCENTRICITY":"0.00044920","PERIOD":"91.530","OBJECT_TYPE":"PAYLOAD","APOAPSIS":"352.634","SEMIMAJOR_AXIS":"6727.747"},{"APOAPSIS":"548.427","SEMIMAJOR_AXIS":"6925.391","ECCENTRICITY":"0.00016910","EPOCH":"2021-09-01T19:56:45.351744","OBJECT_TYPE":"PAYLOAD","PERIOD":"95.593","MEAN_MOTION":"15.06386250","MEAN_MOTION_DDOT":"0.0000000000000","OBJECT_NAME":"STARLINK-2125","CENTER_NAME":"EARTH","SITE":"AFETR","ELEMENT_SET_NO":"999","REV_AT_EPOCH":"2919","RCS_SIZE":"LARGE","TLE_LINE2":"2 47725  53.0568  48.1079 0001691 104.6394 255.4782 15.06386250 29197","ARG_OF_PERICENTER":"104.6394","INCLINATION":"53.0568","CLASSIFICATION_TYPE":"U","TIME_SYSTEM":"UTC","TLE_LINE1":"1 47725U 21017D   21244.83108046  .00000936  00000-0  81730-4 0  9990","DECAY_DATE":null,"EPHEMERIS_TYPE":"0","NORAD_CAT_ID":"47725","OBJECT_ID":"2021-017D","PERIAPSIS":"546.085","MEAN_ANOMALY":"255.4782","RA_OF_ASC_NODE":"48.1079","LAUNCH_DATE":"2021-03-04","FILE":"3107096","REF_FRAME":"TEME","MEAN_MOTION_DOT":"0.00000936","MEAN_ELEMENT_THEORY":"SGP4","COUNTRY_CODE":"US","GP_ID":"183927914","BSTAR":"0.00008173000000"},{"CENTER_NAME":"EARTH","SITE":"AFETR","REV_AT_EPOCH":"2919","ELEMENT_SET_NO":"999","MEAN_MOTION_DDOT":"0.0000000000000","OBJECT_NAME":"STARLINK-2126","MEAN_MOTION":"15.06376833","INCLINATION":"53.0566","CLASSIFICATION_TYPE":"U","TLE_LINE1":"1 47726U 21017E   21244.88269351  .00000999  00000-0  86021-4 0  9990","TIME_SYSTEM":"UTC","TLE_LINE2":"2 47726  53.0566  47.8756 0001509 110.2603 249.8549 15.06376833 29192","ARG_OF_PERICENTER":"110.2603","RCS_SIZE":"LARGE","SEMIMAJOR_AXIS":"6925.420","APOAPSIS":"548.330","OBJECT_TYPE":"PAYLOAD","PERIOD":"95.594","ECCENTRICITY":"0.00015090","EPOCH":"2021-09-01T21:11:04.719264","MEAN_MOTION_DOT":"0.00000999","FILE":"3107096","REF_FRAME":"TEME","LAUNCH_DATE":"2021-03-04","BSTAR":"0.00008602100000","GP_ID":"183927668","MEAN_ELEMENT_THEORY":"SGP4","COUNTRY_CODE":"US","NORAD_CAT_ID":"47726","OBJECT_ID":"2021-017E","DECAY_DATE":null,"EPHEMERIS_TYPE":"0","RA_OF_ASC_NODE":"47.8756","MEAN_ANOMALY":"249.8549","PERIAPSIS":"546.240"},{"NORAD_CAT_ID":"47727","OBJECT_ID":"2021-017F","DECAY_DATE":null,"EPHEMERIS_TYPE":"0","RA_OF_ASC_NODE":"2.2737","MEAN_ANOMALY":"5.0566","PERIAPSIS":"345.609","MEAN_MOTION_DOT":"0.00016218","FILE":"3107096","REF_FRAME":"TEME","LAUNCH_DATE":"2021-03-04","BSTAR":"0.00011944000000","GP_ID":"183926916","MEAN_ELEMENT_THEORY":"SGP4","COUNTRY_CODE":"US","SEMIMAJOR_AXIS":"6727.770","APOAPSIS":"353.662","OBJECT_TYPE":"PAYLOAD","PERIOD":"91.531","ECCENTRICITY":"0.00059850","EPOCH":"2021-09-01T19:25:35.158944","SITE":"AFETR","CENTER_NAME":"EARTH","ELEMENT_SET_NO":"999","REV_AT_EPOCH":"2986","MEAN_MOTION_DDOT":"0.0000000000000","OBJECT_NAME":"STARLINK-2129","MEAN_MOTION":"15.73243748","CLASSIFICATION_TYPE":"U","INCLINATION":"53.0439","TIME_SYSTEM":"UTC","TLE_LINE1":"1 47727U 21017F   21244.80943471  .00016218  00000-0  11944-3 0  9997","TLE_LINE2":"2 47727  53.0439   2.2737 0005985 355.0391   5.0566 15.73243748 29868","ARG_OF_PERICENTER":"355.0391","RCS_SIZE":"LARGE"},{"ARG_OF_PERICENTER":"105.2078","TLE_LINE2":"2 47728  53.0576  48.2923 0002005 105.2078 254.9132 15.06388760 29241","TIME_SYSTEM":"UTC","TLE_LINE1":"1 47728U 21017G   21244.79052168 -.00000878  00000-0 -40075-4 0  9995","CLASSIFICATION_TYPE":"U","INCLINATION":"53.0576","RCS_SIZE":"LARGE","OBJECT_NAME":"STARLINK-2131","MEAN_MOTION_DDOT":"0.0000000000000","REV_AT_EPOCH":"2924","ELEMENT_SET_NO":"999","CENTER_NAME":"EARTH","SITE":"AFETR","MEAN_MOTION":"15.06388760","PERIOD":"95.593","OBJECT_TYPE":"PAYLOAD","EPOCH":"2021-09-01T18:58:21.073152","ECCENTRICITY":"0.00020050","SEMIMAJOR_AXIS":"6925.383","APOAPSIS":"548.637","GP_ID":"183926666","BSTAR":"-0.00004007500000","COUNTRY_CODE":"US","MEAN_ELEMENT_THEORY":"SGP4","REF_FRAME":"TEME","FILE":"3107096","MEAN_MOTION_DOT":"-0.00000878","LAUNCH_DATE":"2021-03-04","MEAN_ANOMALY":"254.9132","RA_OF_ASC_NODE":"48.2923","PERIAPSIS":"545.859","OBJECT_ID":"2021-017G","NORAD_CAT_ID":"47728","EPHEMERIS_TYPE":"0","DECAY_DATE":null},{"OBJECT_TYPE":"PAYLOAD","PERIOD":"91.531","ECCENTRICITY":"0.00043600","EPOCH":"2021-09-01T19:26:03.562080","SEMIMAJOR_AXIS":"6727.790","APOAPSIS":"352.588","CLASSIFICATION_TYPE":"U","INCLINATION":"53.0434","TLE_LINE1":"1 47729U 21017H   21244.80976345  .00030912  00000-0  22339-3 0  9992","TIME_SYSTEM":"UTC","TLE_LINE2":"2 47729  53.0434   2.2727 0004360 343.3630  16.7244 15.73237020 29820","ARG_OF_PERICENTER":"343.3630","RCS_SIZE":"LARGE","CENTER_NAME":"EARTH","SITE":"AFETR","REV_AT_EPOCH":"2982","ELEMENT_SET_NO":"999","MEAN_MOTION_DDOT":"0.0000000000000","OBJECT_NAME":"STARLINK-2132","MEAN_MOTION":"15.73237020","RA_OF_ASC_NODE":"2.2727","MEAN_ANOMALY":"16.7244","PERIAPSIS":"346.721","NORAD_CAT_ID":"47729","OBJECT_ID":"2021-017H","DECAY_DATE":null,"EPHEMERIS_TYPE":"0","BSTAR":"0.00022339000000","GP_ID":"183927415","MEAN_ELEMENT_THEORY":"SGP4","COUNTRY_CODE":"US","MEAN_MOTION_DOT":"0.00030912","FILE":"3107096","REF_FRAME":"TEME","LAUNCH_DATE":"2021-03-04"},{"EPOCH":"2021-09-01T21:05:02.633280","ECCENTRICITY":"0.00020080","OBJECT_TYPE":"PAYLOAD","PERIOD":"95.593","APOAPSIS":"548.628","SEMIMAJOR_AXIS":"6925.373","RCS_SIZE":"LARGE","TIME_SYSTEM":"UTC","TLE_LINE1":"1 47730U 21017J   21244.87850270  .00000961  00000-0  83405-4 0  9992","INCLINATION":"53.0571","CLASSIFICATION_TYPE":"U","ARG_OF_PERICENTER":"90.4782","TLE_LINE2":"2 47730  53.0571  62.8994 0002008  90.4782 269.6437 15.06392153 28992","MEAN_MOTION":"15.06392153","REV_AT_EPOCH":"2899","ELEMENT_SET_NO":"999","CENTER_NAME":"EARTH","SITE":"AFETR","OBJECT_NAME":"STARLINK-2140","MEAN_MOTION_DDOT":"0.0000000000000","PERIAPSIS":"545.847","RA_OF_ASC_NODE":"62.8994","MEAN_ANOMALY":"269.6437","EPHEMERIS_TYPE":"0","DECAY_DATE":null,"OBJECT_ID":"2021-017J","NORAD_CAT_ID":"47730","COUNTRY_CODE":"US","MEAN_ELEMENT_THEORY":"SGP4","BSTAR":"0.00008340500000","GP_ID":"183928168","LAUNCH_DATE":"2021-03-04","MEAN_MOTION_DOT":"0.00000961","REF_FRAME":"TEME","FILE":"3107096"},{"LAUNCH_DATE":"2021-03-04","FILE":"3107096","REF_FRAME":"TEME","MEAN_MOTION_DOT":"0.00000830","MEAN_ELEMENT_THEORY":"SGP4","COUNTRY_CODE":"US","GP_ID":"183926417","BSTAR":"0.00007465500000","DECAY_DATE":null,"EPHEMERIS_TYPE":"0","NORAD_CAT_ID":"47731","OBJECT_ID":"2021-017K","PERIAPSIS":"545.544","MEAN_ANOMALY":"271.6316","RA_OF_ASC_NODE":"58.4660","MEAN_MOTION":"15.06399152","MEAN_MOTION_DDOT":"0.0000000000000","OBJECT_NAME":"STARLINK-2141","SITE":"AFETR","CENTER_NAME":"EARTH","ELEMENT_SET_NO":"999","REV_AT_EPOCH":"2905","RCS_SIZE":"LARGE","TLE_LINE2":"2 47731  53.0561  58.4660 0002414  88.4949 271.6316 15.06399152 29059","ARG_OF_PERICENTER":"88.4949","INCLINATION":"53.0561","CLASSIFICATION_TYPE":"U","TIME_SYSTEM":"UTC","TLE_LINE1":"1 47731U 21017K   21244.75273479  .00000830  00000-0  74655-4 0  9992","APOAPSIS":"548.888","SEMIMAJOR_AXIS":"6925.351","ECCENTRICITY":"0.00024140","EPOCH":"2021-09-01T18:03:56.285856","PERIOD":"95.592","OBJECT_TYPE":"PAYLOAD"},{"BSTAR":"0.00003098000000","GP_ID":"183927166","COUNTRY_CODE":"US","MEAN_ELEMENT_THEORY":"SGP4","MEAN_MOTION_DOT":"0.00003734","REF_FRAME":"TEME","FILE":"3107096","LAUNCH_DATE":"2021-03-04","RA_OF_ASC_NODE":"2.8982","MEAN_ANOMALY":"7.1956","PERIAPSIS":"346.684","OBJECT_ID":"2021-017L","NORAD_CAT_ID":"47732","EPHEMERIS_TYPE":"0","DECAY_DATE":null,"TIME_SYSTEM":"UTC","TLE_LINE1":"1 47732U 21017L   21244.68215338  .00003734  00000-0  30980-4 0  9994","CLASSIFICATION_TYPE":"U","INCLINATION":"53.0442","ARG_OF_PERICENTER":"352.8999","TLE_LINE2":"2 47732  53.0442   2.8982 0004403 352.8999   7.1956 15.73240006 29825","RCS_SIZE":"LARGE","REV_AT_EPOCH":"2982","ELEMENT_SET_NO":"999","CENTER_NAME":"EARTH","SITE":"AFETR","OBJECT_NAME":"STARLINK-2142","MEAN_MOTION_DDOT":"0.0000000000000","MEAN_MOTION":"15.73240006","PERIOD":"91.531","OBJECT_TYPE":"PAYLOAD","EPOCH":"2021-09-01T16:22:18.052032","ECCENTRICITY":"0.00044030","SEMIMAJOR_AXIS":"6727.781","APOAPSIS":"352.608"},{"NORAD_CAT_ID":"47733","OBJECT_ID":"2021-017M","DECAY_DATE":null,"EPHEMERIS_TYPE":"0","RA_OF_ASC_NODE":"68.9106","MEAN_ANOMALY":"274.3458","PERIAPSIS":"546.272","MEAN_MOTION_DOT":"0.00001095","FILE":"3107096","REF_FRAME":"TEME","LAUNCH_DATE":"2021-03-04","BSTAR":"0.00009241300000","GP_ID":"183927915","MEAN_ELEMENT_THEORY":"SGP4","COUNTRY_CODE":"US","SEMIMAJOR_AXIS":"6925.395","APOAPSIS":"548.248","OBJECT_TYPE":"PAYLOAD","PERIOD":"95.593","ECCENTRICITY":"0.00014270","EPOCH":"2021-09-01T16:11:10.780512","SITE":"AFETR","CENTER_NAME":"EARTH","ELEMENT_SET_NO":"999","REV_AT_EPOCH":"2894","MEAN_MOTION_DDOT":"0.0000000000000","OBJECT_NAME":"STARLINK-2143","MEAN_MOTION":"15.06384812","CLASSIFICATION_TYPE":"U","INCLINATION":"53.0566","TIME_SYSTEM":"UTC","TLE_LINE1":"1 47733U 21017M   21244.67443033  .00001095  00000-0  92413-4 0  9996","TLE_LINE2":"2 47733  53.0566  68.9106 0001427  85.7694 274.3458 15.06384812 28948","ARG_OF_PERICENTER":"85.7694","RCS_SIZE":"LARGE"}];
